{"type": "FeatureCollection", "features": [ {"type": "Feature", "properties": {"norad_id": 35759, "name": "COSMOS 2251 DEB", "group": "cosmos-2251-debris", "lat": 31.47037195868825, "lon": 22.928223044831775, "alt_km": 729.5531888408586, "timestamp": "2025-12-14T07:33:19.875793+00:00", "meta": {"OBJECT_NAME": "COSMOS 2251 DEB", "OBJECT_ID": "1993-036ARD", "EPOCH": "2025-12-12T22:06:17.325504", "MEAN_MOTION": 14.64892065, "ECCENTRICITY": 0.00770642, "INCLINATION": 74.0372, "RA_OF_ASC_NODE": 215.6979, "ARG_OF_PERICENTER": 333.7707, "MEAN_ANOMALY": 25.9566, "EPHEMERIS_TYPE": 0, "CLASSIFICATION_TYPE": "U", "NORAD_CAT_ID": 35759, "ELEMENT_SET_NO": 999, "REV_AT_EPOCH": 66138, "BSTAR": 0.00045171828, "MEAN_MOTION_DOT": 2.49e-05, "MEAN_MOTION_DDOT": 0}, "tle": {"line1": "1 35759U 93036ARD 25346.92103386  .00002490  00000+0  45172-3 0  9998", "line2": "2 35759  74.0372 215.6979 0077064 333.7707  25.9566 14.64892065661389"}}, "geometry": {"type": "Point", "coordinates": [22.928223044831775, 31.47037195868825]}}, {"type": "Feature", "properties": {"norad_id": 35771, "name": "COSMOS 2251 DEB", "group": "cosmos-2251-debris", "lat": -41.24810948545603, "lon": 141.9862688758593, "alt_km": 698.5976603567915, "timestamp": "2025-12-14T07:33:19.875805+00:00", "meta": {"OBJECT_NAME": "COSMOS 2251 DEB", "OBJECT_ID": "1993-036ARR", "EPOCH": "2025-12-01T22:51:30.250944", "MEAN_MOTION": 14.12929206, "ECCENTRICITY": 0.02319336, "INCLINATION": 74.1559, "RA_OF_ASC_NODE": 329.2822, "ARG_OF_PERICENTER": 270.0805, "MEAN_ANOMALY": 87.3761, "EPHEMERIS_TYPE": 0, "CLASSIFICATION_TYPE": "U", "NORAD_CAT_ID": 35771, "ELEMENT_SET_NO": 999, "REV_AT_EPOCH": 82708, "BSTAR": 0.0074414228, "MEAN_MOTION_DOT": 0.00017913, "MEAN_MOTION_DDOT": 0}, "tle": {"line1": "1 35771U 93036ARR 25335.95243346  .00017913  00000+0  74414-2 0  9990", "line2": "2 35771  74.1559 329.2822 0231933 270.0805  87.3761 14.12929206827080"}}, "geometry": {"type": "Point", "coordinates": [141.9862688758593, -41.24810948545603]}}, {"type": "Feature", "properties": {"norad_id": 35773, "name": "COSMOS 2251 DEB", "group": "cosmos-2251-debris", "lat": 14.086966821896155, "lon": -18.072162666774783, "alt_km": 704.3902167442384, "timestamp": "2025-12-14T07:33:19.875815+00:00", "meta": {"OBJECT_NAME": "COSMOS 2251 DEB", "OBJECT_ID": "1993-036ART", "EPOCH": "2025-12-12T09:30:25.729632", "MEAN_MOTION": 14.62066198, "ECCENTRICITY": 0.00455671, "INCLINATION": 74.0082, "RA_OF_ASC_NODE": 341.4791, "ARG_OF_PERICENTER": 141.6526, "MEAN_ANOMALY": 218.7896, "EPHEMERIS_TYPE": 0, "CLASSIFICATION_TYPE": "U", "NORAD_CAT_ID": 35773, "ELEMENT_SET_NO": 999, "REV_AT_EPOCH": 86834, "BSTAR": 0.00090074362, "MEAN_MOTION_DOT": 4.563e-05, "MEAN_MOTION_DDOT": 0}, "tle": {"line1": "1 35773U 93036ART 25346.39613113  .00004563  00000+0  90074-3 0  9993", "line2": "2 35773  74.0082 341.4791 0045567 141.6526 218.7896 14.62066198868342"}}, "geometry": {"type": "Point", "coordinates": [-18.072162666774783, 14.086966821896155]}}, {"type": "Feature", "properties": {"norad_id": 35777, "name": "COSMOS 2251 DEB", "group": "cosmos-2251-debris", "lat": -32.480144170112716, "lon": 150.90957669047935, "alt_km": 771.6367100255029, "timestamp": "2025-12-14T07:33:19.875825+00:00", "meta": {"OBJECT_NAME": "COSMOS 2251 DEB", "OBJECT_ID": "1993-036ARX", "EPOCH": "2025-12-13T05:32:57.814080", "MEAN_MOTION": 13.41304312, "ECCENTRICITY": 0.04523038, "INCLINATION": 73.7705, "RA_OF_ASC_NODE": 321.9551, "ARG_OF_PERICENTER": 216.7232, "MEAN_ANOMALY": 166.8369, "EPHEMERIS_TYPE": 0, "CLASSIFICATION_TYPE": "U", "NORAD_CAT_ID": 35777, "ELEMENT_SET_NO": 999, "REV_AT_EPOCH": 79691, "BSTAR": 0.00061045318, "MEAN_MOTION_DOT": 5.97e-06, "MEAN_MOTION_DDOT": 0}, "tle": {"line1": "1 35777U 93036ARX 25347.23122470  .00000597  00000+0  61045-3 0  9991", "line2": "2 35777  73.7705 321.9551 0452303 216.7232 166.8369 13.41304312796919"}}, "geometry": {"type": "Point", "coordinates": [150.90957669047935, -32.480144170112716]}}, {"type": "Feature", "properties": {"norad_id": 35784, "name": "COSMOS 2251 DEB", "group": "cosmos-2251-debris", "lat": -35.17834001691526, "lon": 75.11174465255122, "alt_km": 739.4729039983031, "timestamp": "2025-12-14T07:33:19.875835+00:00", "meta": {"OBJECT_NAME": "COSMOS 2251 DEB", "OBJECT_ID": "1993-036ASE", "EPOCH": "2025-12-13T00:15:55.997856", "MEAN_MOTION": 14.5004387, "ECCENTRICITY": 0.00418068, "INCLINATION": 74.0388, "RA_OF_ASC_NODE": 89.1969, "ARG_OF_PERICENTER": 220.0486, "MEAN_ANOMALY": 139.759, "EPHEMERIS_TYPE": 0, "CLASSIFICATION_TYPE": "U", "NORAD_CAT_ID": 35784, "ELEMENT_SET_NO": 999, "REV_AT_EPOCH": 65710, "BSTAR": 0.00055772353, "MEAN_MOTION_DOT": 2.158e-05, "MEAN_MOTION_DDOT": 0}, "tle": {"line1": "1 35784U 93036ASE 25347.01106479  .00002158  00000+0  55772-3 0  9991", "line2": "2 35784  74.0388  89.1969 0041806 220.0486 139.7590 14.50043870657107"}}, "geometry": {"type": "Point", "coordinates": [75.11174465255122, -35.17834001691526]}}, {"type": "Feature", "properties": {"norad_id": 35786, "name": "COSMOS 2251 DEB", "group": "cosmos-2251-debris", "lat": -25.815945966235482, "lon": 32.75841134466507, "alt_km": 701.2738582230495, "timestamp": "2025-12-14T07:33:19.875845+00:00", "meta": {"OBJECT_NAME": "COSMOS 2251 DEB", "OBJECT_ID": "1993-036ASG", "EPOCH": "2025-12-13T03:50:28.171392", "MEAN_MOTION": 14.66235668, "ECCENTRICITY": 0.00339853, "INCLINATION": 74.0142, "RA_OF_ASC_NODE": 42.9574, "ARG_OF_PERICENTER": 172.697, "MEAN_ANOMALY": 187.4701, "EPHEMERIS_TYPE": 0, "CLASSIFICATION_TYPE": "U", "NORAD_CAT_ID": 35786, "ELEMENT_SET_NO": 999, "REV_AT_EPOCH": 73414, "BSTAR": 0.0014308424, "MEAN_MOTION_DOT": 7.928e-05, "MEAN_MOTION_DDOT": 0}, "tle": {"line1": "1 35786U 93036ASG 25347.16004828  .00007928  00000+0  14308-2 0  9993", "line2": "2 35786  74.0142  42.9574 0033985 172.6970 187.4701 14.66235668734144"}}, "geometry": {"type": "Point", "coordinates": [32.75841134466507, -25.815945966235482]}}, {"type": "Feature", "properties": {"norad_id": 35789, "name": "COSMOS 2251 DEB", "group": "cosmos-2251-debris", "lat": -33.05844428907763, "lon": 112.2140780480247, "alt_km": 810.4199983752933, "timestamp": "2025-12-14T07:33:19.875855+00:00", "meta": {"OBJECT_NAME": "COSMOS 2251 DEB", "OBJECT_ID": "1993-036ASK", "EPOCH": "2025-12-13T12:10:06.042432", "MEAN_MOTION": 14.35987054, "ECCENTRICITY": 0.00473654, "INCLINATION": 74.039, "RA_OF_ASC_NODE": 282.9609, "ARG_OF_PERICENTER": 22.1586, "MEAN_ANOMALY": 338.1599, "EPHEMERIS_TYPE": 0, "CLASSIFICATION_TYPE": "U", "NORAD_CAT_ID": 35789, "ELEMENT_SET_NO": 999, "REV_AT_EPOCH": 61238, "BSTAR": 0.00021745094, "MEAN_MOTION_DOT": 6.14e-06, "MEAN_MOTION_DDOT": 0}, "tle": {"line1": "1 35789U 93036ASK 25347.50701438  .00000614  00000+0  21745-3 0  9994", "line2": "2 35789  74.0390 282.9609 0047365  22.1586 338.1599 14.35987054612386"}}, "geometry": {"type": "Point", "coordinates": [112.2140780480247, -33.05844428907763]}}, {"type": "Feature", "properties": {"norad_id": 35793, "name": "COSMOS 2251 DEB", "group": "cosmos-2251-debris", "lat": 29.284945282882532, "lon": -132.14642850336617, "alt_km": 629.9702672468466, "timestamp": "2025-12-14T07:33:19.875865+00:00", "meta": {"OBJECT_NAME": "COSMOS 2251 DEB", "OBJECT_ID": "1993-036ASP", "EPOCH": "2025-12-13T11:28:48.766080", "MEAN_MOTION": 14.78719121, "ECCENTRICITY": 0.00026599, "INCLINATION": 74.0413, "RA_OF_ASC_NODE": 58.7317, "ARG_OF_PERICENTER": 116.4209, "MEAN_ANOMALY": 261.8271, "EPHEMERIS_TYPE": 0, "CLASSIFICATION_TYPE": "U", "NORAD_CAT_ID": 35793, "ELEMENT_SET_NO": 999, "REV_AT_EPOCH": 65808, "BSTAR": 0.0030909517, "MEAN_MOTION_DOT": 0.00022734, "MEAN_MOTION_DDOT": 0}, "tle": {"line1": "1 35793U 93036ASP 25347.47834220  .00022734  00000+0  30910-2 0  9991", "line2": "2 35793  74.0413  58.7317 0002659 116.4209 261.8271 14.78719121658089"}}, "geometry": {"type": "Point", "coordinates": [-132.14642850336617, 29.284945282882532]}}, {"type": "Feature", "properties": {"norad_id": 35824, "name": "COSMOS 2251 DEB", "group": "cosmos-2251-debris", "lat": 14.761797082888462, "lon": 50.46705208313106, "alt_km": 1012.1629220614204, "timestamp": "2025-12-14T07:33:19.875875+00:00", "meta": {"OBJECT_NAME": "COSMOS 2251 DEB", "OBJECT_ID": "1993-036ASW", "EPOCH": "2025-12-08T11:24:31.157568", "MEAN_MOTION": 13.883958, "ECCENTRICITY": 0.02494458, "INCLINATION": 73.8458, "RA_OF_ASC_NODE": 56.1203, "ARG_OF_PERICENTER": 143.0234, "MEAN_ANOMALY": 218.8382, "EPHEMERIS_TYPE": 0, "CLASSIFICATION_TYPE": "U", "NORAD_CAT_ID": 35824, "ELEMENT_SET_NO": 999, "REV_AT_EPOCH": 84168, "BSTAR": 0.0020429183, "MEAN_MOTION_DOT": 3.116e-05, "MEAN_MOTION_DDOT": 0}, "tle": {"line1": "1 35824U 93036ASW 25342.47536062  .00003116  00000+0  20429-2 0  9991", "line2": "2 35824  73.8458  56.1203 0249445 143.0234 218.8382 13.88395800841685"}}, "geometry": {"type": "Point", "coordinates": [50.46705208313106, 14.761797082888462]}}, {"type": "Feature", "properties": {"norad_id": 35825, "name": "COSMOS 2251 DEB", "group": "cosmos-2251-debris", "lat": -58.87633878327932, "lon": 111.9090704627265, "alt_km": 872.7318238386224, "timestamp": "2025-12-14T07:33:19.875885+00:00", "meta": {"OBJECT_NAME": "COSMOS 2251 DEB", "OBJECT_ID": "1993-036ASX", "EPOCH": "2025-12-06T17:43:31.257408", "MEAN_MOTION": 13.70908059, "ECCENTRICITY": 0.03529553, "INCLINATION": 74.1125, "RA_OF_ASC_NODE": 152.5025, "ARG_OF_PERICENTER": 249.6557, "MEAN_ANOMALY": 106.6316, "EPHEMERIS_TYPE": 0, "CLASSIFICATION_TYPE": "U", "NORAD_CAT_ID": 35825, "ELEMENT_SET_NO": 999, "REV_AT_EPOCH": 82426, "BSTAR": 0.0026115912, "MEAN_MOTION_DOT": 3.599e-05, "MEAN_MOTION_DDOT": 0}, "tle": {"line1": "1 35825U 93036ASX 25340.73855622  .00003599  00000+0  26116-2 0  9999", "line2": "2 35825  74.1125 152.5025 0352955 249.6557 106.6316 13.70908059824269"}}, "geometry": {"type": "Point", "coordinates": [111.9090704627265, -58.87633878327932]}}]}